0 THORAD AGENA D DEB
1 35410U 70025QR  13282.30879605  .00030777  00000-0  35706-2 0  3655
2 35410 099.8821 291.0576 0060430 290.4694 196.6433 14.84031767493682
0 THORAD AGENA D DEB
1 35410U 70025QR  13282.76647917  .00022597  00000-0  26260-2 0  3661
2 35410 099.8822 291.6232 0060347 289.1353 121.7641 14.84052366493758
0 THORAD AGENA D DEB
1 35410U 70025QR  13283.56591172  .00048734  00000-0  56575-2 0  3686
2 35410 099.8801 292.6061 0060476 287.3960 072.1132 14.84082025493875
0 THORAD AGENA D DEB
1 35410U 70025QR  13283.71128959  .00026987  00000-0  31302-2 0  3678
2 35410 099.8828 292.7918 0060333 286.0973 129.6878 14.84081714493899
0 THORAD AGENA D DEB
1 35410U 70025QR  13285.73344350  .00018978  00000-0  22024-2 0  3691
2 35410 099.8823 295.2929 0060337 279.7392 133.8808 14.84158100494190
0 THORAD AGENA D DEB
1 35410U 70025QR  13286.74508789  .00019737  00000-0  22881-2 0  3708
2 35410 099.8819 296.5442 0060331 276.5465 139.2246 14.84189149494349
0 THORAD AGENA D DEB
1 35410U 70025QR  13287.75614990  .00028173  00000-0  32550-2 0  3711
2 35410 099.8812 297.7949 0060296 273.3123 141.6232 14.84231673494491
0 THORAD AGENA D DEB
1 35410U 70025QR  13288.76649972  .00028046  00000-0  32363-2 0  3723
2 35410 099.8809 299.0450 0060209 270.0866 140.3980 14.84287232494646
0 THORAD AGENA D DEB
1 35410U 70025QR  13289.71205152  .00030511  00000-0  35156-2 0  3731
2 35410 099.8810 300.2148 0060180 267.0787 153.0733 14.84323594494787
0 THORAD AGENA D DEB
1 35410U 70025QR  13290.72182811  .00028948  00000-0  33331-2 0  3745
2 35410 099.8809 301.4639 0060153 263.9111 149.0418 14.84369517494936
0 THORAD AGENA D DEB
1 35410U 70025QR  13292.00253977  .00020096  00000-0  23161-2 0  3757
2 35410 099.8805 303.0478 0060274 259.9477 152.9941 14.84426164495123
0 THORAD AGENA D DEB
1 35410U 70025QR  13293.01370659  .00020652  00000-0  23775-2 0  3766
2 35410 099.8804 304.2989 0060265 256.7549 156.7727 14.84465305495277
0 THORAD AGENA D DEB
1 35410U 70025QR  13294.51523194  .00026915  00000-0  30888-2 0  3778
2 35410 099.8803 306.1567 0060323 251.9790 261.3683 14.84517594495495
0 THORAD AGENA D DEB
1 35410U 70025QR  13295.97996203  .00027357  00000-0  31347-2 0  3787
2 35410 099.8809 307.9685 0060235 247.3823 169.5542 14.84579643495710
